STARLINK-32658          
1 62999U 25031U   26068.53782840  .00032355  00000+0  11798-2 0  9990
2 62999  43.0011 144.0508 0001566 269.4702  90.5970 15.27589784 61076
TEVEL2-1                
1 63217U 25052H   26068.64782323  .00020683  00000+0  70600-3 0  9994
2 63217  97.3991 324.7682 0004767 104.8919 255.2849 15.30341923 54855
